[{"OBJECT_NAME":"STARLINK-11090 [DTC]","OBJECT_ID":"2024-065B","EPOCH":"2025-07-28T00:01:42.286368","MEAN_MOTION":15.69705351,"ECCENTRICITY":0.0001145,"INCLINATION":53.1592,"RA_OF_ASC_NODE":121.4877,"ARG_OF_PERICENTER":91.7577,"MEAN_ANOMALY":268.3572,"EPHEMERIS_TYPE":0,"CLASSIFICATION_TYPE":"U","NORAD_CAT_ID":59422,"ELEMENT_SET_NO":999,"REV_AT_EPOCH":7624,"BSTAR":-1.1467e-6,"MEAN_MOTION_DOT":-7.27e-6,"MEAN_MOTION_DDOT":0},{"OBJECT_NAME":"STARLINK-11093 [DTC]","OBJECT_ID":"2024-065C","EPOCH":"2025-07-28T10:50:33.215712","MEAN_MOTION":15.69708818,"ECCENTRICITY":0.0001137,"INCLINATION":53.1592,"RA_OF_ASC_NODE":119.3211,"ARG_OF_PERICENTER":90.4028,"MEAN_ANOMALY":269.712,"EPHEMERIS_TYPE":0,"CLASSIFICATION_TYPE":"U","NORAD_CAT_ID":59423,"ELEMENT_SET_NO":999,"REV_AT_EPOCH":7629,"BSTAR":-3.1121e-6,"MEAN_MOTION_DOT":-9.66e-6,"MEAN_MOTION_DDOT":0},{"OBJECT_NAME":"STARLINK-11083 [DTC]","OBJECT_ID":"2024-065D","EPOCH":"2025-07-28T03:19:12.124128","MEAN_MOTION":15.69701315,"ECCENTRICITY":0.0001026,"INCLINATION":53.1575,"RA_OF_ASC_NODE":120.9245,"ARG_OF_PERICENTER":59.9823,"MEAN_ANOMALY":300.1296,"EPHEMERIS_TYPE":0,"CLASSIFICATION_TYPE":"U","NORAD_CAT_ID":59424,"ELEMENT_SET_NO":999,"REV_AT_EPOCH":7620,"BSTAR":-5.371e-6,"MEAN_MOTION_DOT":-1.239e-5,"MEAN_MOTION_DDOT":0},{"OBJECT_NAME":"STARLINK-11085 [DTC]","OBJECT_ID":"2024-065E","EPOCH":"2025-07-28T01:26:19.315392","MEAN_MOTION":15.69699077,"ECCENTRICITY":8.76e-5,"INCLINATION":53.1591,"RA_OF_ASC_NODE":121.1427,"ARG_OF_PERICENTER":106.2273,"MEAN_ANOMALY":253.8841,"EPHEMERIS_TYPE":0,"CLASSIFICATION_TYPE":"U","NORAD_CAT_ID":59425,"ELEMENT_SET_NO":999,"REV_AT_EPOCH":7618,"BSTAR":1.5778e-5,"MEAN_MOTION_DOT":1.323e-5,"MEAN_MOTION_DDOT":0},{"OBJECT_NAME":"STARLINK-11089 [DTC]","OBJECT_ID":"2024-065F","EPOCH":"2025-07-28T08:08:23.915616","MEAN_MOTION":15.69671715,"ECCENTRICITY":0.0001245,"INCLINATION":53.159,"RA_OF_ASC_NODE":120.0653,"ARG_OF_PERICENTER":98.8436,"MEAN_ANOMALY":261.2723,"EPHEMERIS_TYPE":0,"CLASSIFICATION_TYPE":"U","NORAD_CAT_ID":59426,"ELEMENT_SET_NO":999,"REV_AT_EPOCH":7628,"BSTAR":4.121e-5,"MEAN_MOTION_DOT":4.399e-5,"MEAN_MOTION_DDOT":0},{"OBJECT_NAME":"STARLINK-31757","OBJECT_ID":"2024-065G","EPOCH":"2025-07-28T08:34:26.127840","MEAN_MOTION":15.30178642,"ECCENTRICITY":0.0001342,"INCLINATION":53.1601,"RA_OF_ASC_NODE":243.6481,"ARG_OF_PERICENTER":103.5043,"MEAN_ANOMALY":256.6107,"EPHEMERIS_TYPE":0,"CLASSIFICATION_TYPE":"U","NORAD_CAT_ID":59427,"ELEMENT_SET_NO":999,"REV_AT_EPOCH":7458,"BSTAR":-3.5932e-5,"MEAN_MOTION_DOT":-1.422e-5,"MEAN_MOTION_DDOT":0},{"OBJECT_NAME":"STARLINK-31773","OBJECT_ID":"2024-065J","EPOCH":"2025-07-28T09:41:52.921536","MEAN_MOTION":15.30183839,"ECCENTRICITY":0.0001332,"INCLINATION":53.1561,"RA_OF_ASC_NODE":245.3546,"ARG_OF_PERICENTER":92.8657,"MEAN_ANOMALY":267.2496,"EPHEMERIS_TYPE":0,"CLASSIFICATION_TYPE":"U","NORAD_CAT_ID":59429,"ELEMENT_SET_NO":999,"REV_AT_EPOCH":7456,"BSTAR":-0.0001064,"MEAN_MOTION_DOT":-3.507e-5,"MEAN_MOTION_DDOT":0},{"OBJECT_NAME":"STARLINK-31772","OBJECT_ID":"2024-065K","EPOCH":"2025-07-28T19:09:59.914368","MEAN_MOTION":15.30196481,"ECCENTRICITY":0.0001237,"INCLINATION":53.1578,"RA_OF_ASC_NODE":241.4153,"ARG_OF_PERICENTER":73.4208,"MEAN_ANOMALY":286.6928,"EPHEMERIS_TYPE":0,"CLASSIFICATION_TYPE":"U","NORAD_CAT_ID":59430,"ELEMENT_SET_NO":999,"REV_AT_EPOCH":7464,"BSTAR":6.7158e-5,"MEAN_MOTION_DOT":1.63e-5,"MEAN_MOTION_DDOT":0},{"OBJECT_NAME":"STARLINK-31613","OBJECT_ID":"2024-065L","EPOCH":"2025-07-28T10:03:55.011744","MEAN_MOTION":15.30187914,"ECCENTRICITY":0.0001137,"INCLINATION":53.159,"RA_OF_ASC_NODE":243.316,"ARG_OF_PERICENTER":90.9094,"MEAN_ANOMALY":269.2037,"EPHEMERIS_TYPE":0,"CLASSIFICATION_TYPE":"U","NORAD_CAT_ID":59431,"ELEMENT_SET_NO":999,"REV_AT_EPOCH":7459,"BSTAR":-2.2648e-5,"MEAN_MOTION_DOT":-1.029e-5,"MEAN_MOTION_DDOT":0},{"OBJECT_NAME":"STARLINK-31780","OBJECT_ID":"2024-065M","EPOCH":"2025-07-28T08:40:29.714592","MEAN_MOTION":15.30191031,"ECCENTRICITY":0.0001297,"INCLINATION":53.1591,"RA_OF_ASC_NODE":243.6626,"ARG_OF_PERICENTER":81.9965,"MEAN_ANOMALY":278.1183,"EPHEMERIS_TYPE":0,"CLASSIFICATION_TYPE":"U","NORAD_CAT_ID":59432,"ELEMENT_SET_NO":999,"REV_AT_EPOCH":7458,"BSTAR":6.988e-6,"MEAN_MOTION_DOT":-1.52e-6,"MEAN_MOTION_DDOT":0},{"OBJECT_NAME":"STARLINK-31740","OBJECT_ID":"2024-065N","EPOCH":"2025-07-28T09:38:50.468928","MEAN_MOTION":15.30208317,"ECCENTRICITY":0.0001239,"INCLINATION":53.1591,"RA_OF_ASC_NODE":245.3427,"ARG_OF_PERICENTER":94.2417,"MEAN_ANOMALY":265.8725,"EPHEMERIS_TYPE":0,"CLASSIFICATION_TYPE":"U","NORAD_CAT_ID":59433,"ELEMENT_SET_NO":999,"REV_AT_EPOCH":7455,"BSTAR":0.0001328,"MEAN_MOTION_DOT":3.577e-5,"MEAN_MOTION_DDOT":0},{"OBJECT_NAME":"STARLINK-31580","OBJECT_ID":"2024-065P","EPOCH":"2025-07-28T09:51:00.904896","MEAN_MOTION":15.3017936,"ECCENTRICITY":0.0001048,"INCLINATION":53.1583,"RA_OF_ASC_NODE":245.3926,"ARG_OF_PERICENTER":94.3526,"MEAN_ANOMALY":265.7594,"EPHEMERIS_TYPE":0,"CLASSIFICATION_TYPE":"U","NORAD_CAT_ID":59434,"ELEMENT_SET_NO":999,"REV_AT_EPOCH":7456,"BSTAR":-5.317e-5,"MEAN_MOTION_DOT":-1.932e-5,"MEAN_MOTION_DDOT":0},{"OBJECT_NAME":"STARLINK-31696","OBJECT_ID":"2024-065Q","EPOCH":"2025-07-28T09:59:21.405408","MEAN_MOTION":15.30186674,"ECCENTRICITY":0.0001227,"INCLINATION":53.1584,"RA_OF_ASC_NODE":243.2951,"ARG_OF_PERICENTER":87.0928,"MEAN_ANOMALY":273.0213,"EPHEMERIS_TYPE":0,"CLASSIFICATION_TYPE":"U","NORAD_CAT_ID":59435,"ELEMENT_SET_NO":999,"REV_AT_EPOCH":7459,"BSTAR":-1.0421e-5,"MEAN_MOTION_DOT":-6.68e-6,"MEAN_MOTION_DDOT":0},{"OBJECT_NAME":"STARLINK-31700","OBJECT_ID":"2024-065R","EPOCH":"2025-07-28T08:16:11.194464","MEAN_MOTION":15.30186994,"ECCENTRICITY":0.0001086,"INCLINATION":53.1586,"RA_OF_ASC_NODE":243.5579,"ARG_OF_PERICENTER":84.4359,"MEAN_ANOMALY":275.6765,"EPHEMERIS_TYPE":0,"CLASSIFICATION_TYPE":"U","NORAD_CAT_ID":59436,"ELEMENT_SET_NO":999,"REV_AT_EPOCH":7458,"BSTAR":-1.7187e-5,"MEAN_MOTION_DOT":-8.68e-6,"MEAN_MOTION_DDOT":0},{"OBJECT_NAME":"STARLINK-31706","OBJECT_ID":"2024-065S","EPOCH":"2025-07-28T19:04:41.327328","MEAN_MOTION":15.30213435,"ECCENTRICITY":0.0001119,"INCLINATION":53.1564,"RA_OF_ASC_NODE":243.5329,"ARG_OF_PERICENTER":89.4514,"MEAN_ANOMALY":270.6615,"EPHEMERIS_TYPE":0,"CLASSIFICATION_TYPE":"U","NORAD_CAT_ID":59437,"ELEMENT_SET_NO":999,"REV_AT_EPOCH":7462,"BSTAR":0.00029337,"MEAN_MOTION_DOT":8.343e-5,"MEAN_MOTION_DDOT":0},{"OBJECT_NAME":"STARLINK-31711","OBJECT_ID":"2024-065T","EPOCH":"2025-07-28T09:54:47.901024","MEAN_MOTION":15.30188976,"ECCENTRICITY":0.0001272,"INCLINATION":53.1593,"RA_OF_ASC_NODE":243.274,"ARG_OF_PERICENTER":86.0881,"MEAN_ANOMALY":274.0265,"EPHEMERIS_TYPE":0,"CLASSIFICATION_TYPE":"U","NORAD_CAT_ID":59438,"ELEMENT_SET_NO":999,"REV_AT_EPOCH":7459,"BSTAR":-1.3467e-5,"MEAN_MOTION_DOT":-7.58e-6,"MEAN_MOTION_DDOT":0}]
