STARLINK-11090 [DTC]    
1 59422U 24065B   25209.00118387 -.00000727  00000+0 -11467-5 0  9996
2 59422  53.1592 121.4877 0001145  91.7577 268.3572 15.69705351 76240
STARLINK-11093 [DTC]    
1 59423U 24065C   25209.45177333 -.00000966  00000+0 -31121-5 0  9996
2 59423  53.1592 119.3211 0001137  90.4028 269.7120 15.69708818 76297
STARLINK-11083 [DTC]    
1 59424U 24065D   25209.13833477 -.00001239  00000+0 -53710-5 0  9992
2 59424  53.1575 120.9245 0001026  59.9823 300.1296 15.69701315 76204
STARLINK-11085 [DTC]    
1 59425U 24065E   25209.05994578  .00001323  00000+0  15778-4 0  9997
2 59425  53.1591 121.1427 0000876 106.2273 253.8841 15.69699077 76183
STARLINK-11089 [DTC]    
1 59426U 24065F   25209.33916569  .00004399  00000+0  41210-4 0  9999
2 59426  53.1590 120.0653 0001245  98.8436 261.2723 15.69671715 76282
STARLINK-31757          
1 59427U 24065G   25209.35724685 -.00001422  00000+0 -35932-4 0  9998
2 59427  53.1601 243.6481 0001342 103.5043 256.6107 15.30178642 74587
STARLINK-31773          
1 59429U 24065J   25209.40408474 -.00003507  00000+0 -10640-3 0  9995
2 59429  53.1561 245.3546 0001332  92.8657 267.2496 15.30183839 74566
STARLINK-31772          
1 59430U 24065K   25209.79861012  .00001630  00000+0  67158-4 0  9990
2 59430  53.1578 241.4153 0001237  73.4208 286.6928 15.30196481 74649
STARLINK-31613          
1 59431U 24065L   25209.41938671 -.00001029  00000+0 -22648-4 0  9995
2 59431  53.1590 243.3160 0001137  90.9094 269.2037 15.30187914 74592
STARLINK-31780          
1 59432U 24065M   25209.36145503 -.00000152  00000+0  69880-5 0  9999
2 59432  53.1591 243.6626 0001297  81.9965 278.1183 15.30191031 74583
STARLINK-31740          
1 59433U 24065N   25209.40197302  .00003577  00000+0  13280-3 0  9993
2 59433  53.1591 245.3427 0001239  94.2417 265.8725 15.30208317 74555
STARLINK-31580          
1 59434U 24065P   25209.41042714 -.00001932  00000+0 -53170-4 0  9999
2 59434  53.1583 245.3926 0001048  94.3526 265.7594 15.30179360 74560
STARLINK-31696          
1 59435U 24065Q   25209.41621997 -.00000668  00000+0 -10421-4 0  9993
2 59435  53.1584 243.2951 0001227  87.0928 273.0213 15.30186674 74590
STARLINK-31700          
1 59436U 24065R   25209.34457401 -.00000868  00000+0 -17187-4 0  9991
2 59436  53.1586 243.5579 0001086  84.4359 275.6765 15.30186994 74588
STARLINK-31706          
1 59437U 24065S   25209.79492277  .00008343  00000+0  29337-3 0  9994
2 59437  53.1564 243.5329 0001119  89.4514 270.6615 15.30213435 74628
STARLINK-31711          
1 59438U 24065T   25209.41305441 -.00000758  00000+0 -13467-4 0  9992
2 59438  53.1593 243.2740 0001272  86.0881 274.0265 15.30188976 74591
